KAZEOSAT 2              
1 40010U 14033A   26161.29191073  .00000053  00000+0  11930-4 0  9999
2 40010  97.5416   1.2681 0008536 352.9861   7.1234 14.85459666647933
HODOYOSHI-4             
1 40011U 14033B   26161.31003917  .00000353  00000+0  43932-4 0  9992
2 40011  97.5458 346.4648 0023066 332.0122  27.9853 14.88109492647783
DEIMOS-2                
1 40013U 14033D   26161.28331484  .00001725  00000+0  16812-3 0  9993
2 40013  97.5844  36.0145 0002038  57.2226 302.9190 14.93711125636691
HODOYOSHI-3             
1 40015U 14033F   26161.17916270  .00000959  00000+0  11647-3 0  9994
2 40015  97.6411 324.5022 0033320  20.2759 339.9771 14.85374333646583
SPOT 7                  
1 40053U 14034A   26161.33266248  .00000144  00000+0  38686-4 0  9997
2 40053  98.0628 224.0008 0001169  88.0360 272.0975 14.60951854636139
SKYSAT-B                
1 40072U 14037D   26161.13174678  .00001193  00000+0  13665-3 0  9998
2 40072  98.3834 119.6947 0004447 311.2852  48.7979 14.88009627644911
WORLDVIEW-3 (WV-3)      
1 40115U 14048A   26161.22716599  .00000694  00000+0  87579-4 0  9993
2 40115  97.8566 236.1560 0001523  36.5191 323.6128 14.85010443640873
GAOFEN-2                
1 40118U 14049A   26161.28443189  .00000808  00000+0  11147-3 0  9999
2 40118  98.0109 225.4980 0005884 254.2856 105.7707 14.80892880638215
YAOGAN-21               
1 40143U 14053A   26161.27889286  .00006475  00000+0  25212-3 0  9997
2 40143  97.1483 201.8119 0009889 113.2840 246.9442 15.26270763653904
YAOGAN-22               
1 40275U 14063A   26161.18899079 -.00000035  00000+0  30482-4 0  9998
2 40275 100.7715 312.3462 0006180 201.1384 158.9472 13.15531010558897
ASNARO                  
1 40298U 14070A   26161.24417536  .00006040  00000+0  28895-3 0  9997
2 40298  97.3449 237.5470 0004934 187.2363 172.8802 15.19329871642959
YAOGAN-24               
1 40310U 14072A   26161.30394845  .00000609  00000+0  95698-4 0  9999
2 40310  98.1478 298.5843 0012643 288.1852  71.7980 14.76214486622708
CBERS 4                 
1 40336U 14079A   26161.27611946 -.00000060  00000+0 -60835-5 0  9993
2 40336  98.3533 218.3244 0001986  70.6743 289.4657 14.35506943602968
YAOGAN-26               
1 40362U 14088A   26161.27803271  .00026621  00000+0  52621-3 0  9997
2 40362  97.0646 161.6501 0006491  82.8306 277.3683 15.47077309636639
SMAP                    
1 40376U 15003A   26161.24224485  .00000374  00000+0  81422-4 0  9990
2 40376  98.1276 168.4352 0001279  93.8750 266.2598 14.63360463606607
KOMPSAT-3A              
1 40536U 15014A   26161.28674646  .00021280  00000+0  31234-3 0  9996
2 40536  97.6884 152.1456 0055961 199.5166 160.3945 15.53678570620743
SENTINEL-2A             
1 40697U 15028A   26161.29160096 -.00000039  00000+0  18318-5 0  9999
2 40697  98.5679 236.2409 0001069  89.1782 270.9523 14.30821618572746
GAOFEN-8                
1 40701U 15030A   26161.29088075  .00013179  00000+0  27456-3 0  9993
2 40701  97.6915 354.2487 0008255 211.3202 148.7556 15.45695445610387
CARBONITE 1 (CBNT-1)    
1 40718U 15032D   26161.30301700  .00000874  00000+0  11215-3 0  9992
2 40718  97.6510 339.6581 0013614 322.3381  37.6879 14.83563824588322
YAOGAN-27               
1 40878U 15040A   26161.26270663  .00000071  00000+0  29891-3 0  9994
2 40878 100.1152 147.9461 0007516 227.7493 132.2984 13.16068922516755
GAOFEN-9 01             
1 40894U 15047A   26161.31476639  .00000827  00000+0  10763-3 0  9993
2 40894  97.6278 197.3216 0027886 159.6507 200.5825 14.82870526579173
YAOGAN-28               
1 41026U 15064A   26161.31276722  .00006893  00000+0  25986-3 0  9993
2 41026  97.3060 299.7157 0010011 208.0425 152.0276 15.27332863589638
YAOGAN-29               
1 41038U 15069A   26161.29605671  .00000194  00000+0  30447-4 0  9994
2 41038  98.0034 189.9180 0002836  65.5401 294.6107 14.83078402569600
KENT RIDGE 1            
1 41167U 15077B   26161.09089615  .00003848  00000+0  12692-3 0  9998
2 41167  14.9807 318.7632 0008237 138.3408 221.7543 15.23089070580010
JASON-3                 
1 41240U 16002A   26161.24535383 -.00000029  00000+0  13167-3 0  9991
2 41240  66.0394 140.4294 0008572 273.0770  86.9267 12.87627894486351
SENTINEL-3A             
1 41335U 16011A   26161.27370698  .00000077  00000+0  49915-4 0  9998
2 41335  98.6249 228.7564 0001363 103.8934 256.2398 14.26738053537077
ZIYUAN 3-02 (ZY 3-02)   
1 41556U 16033A   26161.28396682  .00004849  00000+0  21878-3 0  9997
2 41556  97.3836 237.1902 0011500 317.3458  42.6884 15.21414604556939
CARTOSAT-2C             
1 41599U 16040A   26161.27657240  .00003919  00000+0  18891-3 0  9999
2 41599  97.4488 221.3492 0010080 152.5368 207.6402 15.19263622552664
