OBJECT_NAME,OBJECT_ID,EPOCH,MEAN_MOTION,ECCENTRICITY,INCLINATION,RA_OF_ASC_NODE,ARG_OF_PERICENTER,MEAN_ANOMALY,EPHEMERIS_TYPE,CLASSIFICATION_TYPE,NORAD_CAT_ID,ELEMENT_SET_NO,REV_AT_EPOCH,BSTAR,MEAN_MOTION_DOT,MEAN_MOTION_DDOT
KAZEOSAT 2,2014-033A,2026-06-10T07:00:21.087072,14.85459666,.00085364,97.5416,1.2681,352.9861,7.1234,0,U,40010,999,64793,.11930284E-4,.53E-6,0
HODOYOSHI-4,2014-033B,2026-06-10T07:26:27.384288,14.88109492,.00230666,97.5458,346.4648,332.0122,27.9853,0,U,40011,999,64778,.43931906E-4,.353E-5,0
DEIMOS-2,2014-033D,2026-06-10T06:47:58.402176,14.93711125,.00020388,97.5844,36.0145,57.2226,302.9190,0,U,40013,999,63669,.16811929E-3,.1725E-4,0
HODOYOSHI-3,2014-033F,2026-06-10T04:17:59.657280,14.85374333,.00333205,97.6411,324.5022,20.2759,339.9771,0,U,40015,999,64658,.11646651E-3,.959E-5,0
SPOT 7,2014-034A,2026-06-10T07:59:02.038272,14.60951854,.00011698,98.0628,224.0008,88.0360,272.0975,0,U,40053,999,63613,.38686209E-4,.144E-5,0
SKYSAT-B,2014-037D,2026-06-10T03:09:42.921792,14.88009627,.00044474,98.3834,119.6947,311.2852,48.7979,0,U,40072,999,64491,.13664924E-3,.1193E-4,0
WORLDVIEW-3 (WV-3),2014-048A,2026-06-10T05:27:07.141536,14.85010443,.0001523,97.8566,236.1560,36.5191,323.6128,0,U,40115,999,64087,.87578914E-4,.694E-5,0
GAOFEN-2,2014-049A,2026-06-10T06:49:34.915296,14.80892880,.00058844,98.0109,225.4980,254.2856,105.7707,0,U,40118,999,63821,.11146751E-3,.808E-5,0
YAOGAN-21,2014-053A,2026-06-10T06:41:36.343104,15.26270763,.00098898,97.1483,201.8119,113.2840,246.9442,0,U,40143,999,65390,.25212334E-3,.6475E-4,0
YAOGAN-22,2014-063A,2026-06-10T04:32:08.804256,13.15531010,.00061807,100.7715,312.3462,201.1384,158.9472,0,U,40275,999,55889,.30481888E-4,-.35E-6,0
ASNARO,2014-070A,2026-06-10T05:51:36.751104,15.19329871,.00049341,97.3449,237.5470,187.2363,172.8802,0,U,40298,999,64295,.28895102E-3,.604E-4,0
YAOGAN-24,2014-072A,2026-06-10T07:17:41.146080,14.76214486,.00126435,98.1478,298.5843,288.1852,71.7980,0,U,40310,999,62270,.95697718E-4,.609E-5,0
CBERS 4,2014-079A,2026-06-10T06:37:36.721344,14.35506943,.00019864,98.3533,218.3244,70.6743,289.4657,0,U,40336,999,60296,-.6083526E-5,-.6E-6,0
YAOGAN-26,2014-088A,2026-06-10T06:40:22.026144,15.47077309,.00064912,97.0646,161.6501,82.8306,277.3683,0,U,40362,999,63663,.52620778E-3,.26621E-3,0
SMAP,2015-003A,2026-06-10T05:48:49.955040,14.63360463,.00012798,98.1276,168.4352,93.8750,266.2598,0,U,40376,999,60660,.81422318E-4,.374E-5,0
KOMPSAT-3A,2015-014A,2026-06-10T06:52:54.894144,15.53678570,.00559611,97.6884,152.1456,199.5166,160.3945,0,U,40536,999,62074,.31233933E-3,.2128E-3,0
SENTINEL-2A,2015-028A,2026-06-10T06:59:54.322944,14.30821618,.00010698,98.5679,236.2409,89.1782,270.9523,0,U,40697,999,57274,.1831779E-5,-.39E-6,0
GAOFEN-8,2015-030A,2026-06-10T06:58:52.096800,15.45695445,.00082551,97.6915,354.2487,211.3202,148.7556,0,U,40701,999,61038,.27455835E-3,.13179E-3,0
CARBONITE 1 (CBNT-1),2015-032D,2026-06-10T07:16:20.668800,14.83563824,.00136147,97.6510,339.6581,322.3381,37.6879,0,U,40718,999,58832,.11215335E-3,.874E-5,0
YAOGAN-27,2015-040A,2026-06-10T06:18:17.852832,13.16068922,.00075163,100.1152,147.9461,227.7493,132.2984,0,U,40878,999,51675,.29891279E-3,.71E-6,0
GAOFEN-9 01,2015-047A,2026-06-10T07:33:15.816096,14.82870526,.0027886,97.6278,197.3216,159.6507,200.5825,0,U,40894,999,57917,.10762568E-3,.827E-5,0
YAOGAN-28,2015-064A,2026-06-10T07:30:23.087808,15.27332863,.00100111,97.3060,299.7157,208.0425,152.0276,0,U,41026,999,58963,.25985925E-3,.6893E-4,0
YAOGAN-29,2015-069A,2026-06-10T07:06:19.299744,14.83078402,.00028363,98.0034,189.9180,65.5401,294.6107,0,U,41038,999,56960,.30446741E-4,.194E-5,0
KENT RIDGE 1,2015-077B,2026-06-10T02:10:53.427360,15.23089070,.00082377,14.9807,318.7632,138.3408,221.7543,0,U,41167,999,58001,.12691533E-3,.3848E-4,0
JASON-3,2016-002A,2026-06-10T05:53:18.570912,12.87627894,.00085725,66.0394,140.4294,273.0770,86.9267,0,U,41240,999,48635,.13167021E-3,-.29E-6,0
SENTINEL-3A,2016-011A,2026-06-10T06:34:08.283072,14.26738053,.0001363,98.6249,228.7564,103.8934,256.2398,0,U,41335,999,53707,.49914737E-4,.77E-6,0
ZIYUAN 3-02 (ZY 3-02),2016-033A,2026-06-10T06:48:54.733248,15.21414604,.00115007,97.3836,237.1902,317.3458,42.6884,0,U,41556,999,55693,.21877908E-3,.4849E-4,0
CARTOSAT-2C,2016-040A,2026-06-10T06:38:15.855360,15.19263622,.00100804,97.4488,221.3492,152.5368,207.6402,0,U,41599,999,55266,.18890994E-3,.3919E-4,0
